BEIDOU-2 IGSO-1 (C06)   
1 36828U 10036A   24359.96689753 -.00000025  00000+0  00000+0 0  9999
2 36828  54.2634 167.8361 0043172 205.9225 175.7994  1.00275818 52693
BEIDOU-2 G4 (C04)       
1 37210U 10057A   24359.77474003 -.00000088  00000+0  00000+0 0  9996
2 37210   2.3094  70.2795 0009400 189.1832 273.2557  1.00271955 51881
BEIDOU-2 IGSO-2 (C07)   
1 37256U 10068A   24358.72199406 -.00000212  00000+0  00000+0 0  9992
2 37256  48.5315 278.5061 0039800 215.9930 324.7591  1.00292891 51378
BEIDOU-2 IGSO-3 (C08)   
1 37384U 11013A   24359.80222753 -.00000181  00000+0  00000+0 0  9992
2 37384  61.6295  45.2777 0030733 183.9605 259.6048  1.00261452 50253
BEIDOU-2 IGSO-4 (C09)   
1 37763U 11038A   24356.98132495  .00000042  00000+0  00000+0 0  9994
2 37763  54.5671 170.5152 0130748 228.4896 141.4284  1.00268665 49213
BEIDOU-2 IGSO-5 (C10)   
1 37948U 11073A   24359.76144730 -.00000193  00000+0  00000+0 0  9990
2 37948  48.6648 278.1908 0101819 221.1251 323.2799  1.00289740 47724
BEIDOU-2 G5 (C05)       
1 38091U 12008A   24359.89760515  .00000081  00000+0  00000+0 0  9993
2 38091   2.2304  71.0870 0012735 230.5503 174.1941  1.00268138 46964
BEIDOU-2 M3 (C11)       
1 38250U 12018A   24359.55054040 -.00000089  00000+0  00000+0 0  9992
2 38250  56.2035 322.9939 0024905 269.8551  89.8543  1.86233738 85892
BEIDOU-2 M4 (C12)       
1 38251U 12018B   24359.48126378 -.00000090  00000+0  00000+0 0  9991
2 38251  56.1087 322.2535 0015833 273.8257  85.9880  1.86232174 85896
BEIDOU-2 M6 (C14)       
1 38775U 12050B   24359.19104799 -.00000060  00000+0  00000+0 0  9996
2 38775  56.0701  80.8211 0011466 336.7359  23.2327  1.86230960 83257
BEIDOU-2 G6 (C02)       
1 38953U 12059A   24359.90264422 -.00000150  00000+0  00000+0 0  9992
2 38953   3.0476  78.9529 0008504 288.0912 135.7365  1.00268497 44507
BEIDOU-3S IGSO-1S (C31) 
1 40549U 15019A   24359.79088925 -.00000189  00000+0  00000+0 0  9996
2 40549  50.2188 301.9320 0034259 198.1632 333.9847  1.00262195 35662
BEIDOU-3S M2S (C58)     
1 40748U 15037A   24359.14527388 -.00000091  00000+0  00000+0 0  9999
2 40748  55.3351 320.5662 0012400 265.1478  94.7057  1.86229252 64066
BEIDOU-3S M1S (C57)     
1 40749U 15037B   24359.41877434 -.00000091  00000+0  00000+0 0  9990
2 40749  55.3377 320.5436 0004535 328.9235  31.0445  1.86227646 64063
BEIDOU-3S IGSO-2S (C56) 
1 40938U 15053A   24359.64544806 -.00000134  00000+0  00000+0 0  9995
2 40938  50.0603 265.1764 0051378 188.5323 327.9139  1.00262707 33943
BEIDOU-2 IGSO-6 (C13)   
1 41434U 16021A   24359.58591017 -.00000165  00000+0  00000+0 0  9996
2 41434  59.4577  43.4332 0055520 227.2074 130.8633  1.00278269 32065
BEIDOU-2 G7 (C03)       
1 41586U 16037A   24359.88278406 -.00000330  00000+0  00000+0 0  9992
2 41586   1.8370  67.6099 0007778 343.3789 111.2293  1.00275079  1481
BEIDOU-3 M1 (C19)       
1 43001U 17069A   24358.95687550 -.00000059  00000+0  00000+0 0  9991
2 43001  56.2197  80.9502 0009555 296.7354  63.1875  1.86231384 48541
BEIDOU-3 M2 (C20)       
1 43002U 17069B   24359.43146271 -.00000060  00000+0  00000+0 0  9998
2 43002  56.2192  80.9703 0006794 321.2855  38.6861  1.86231005 48544
BEIDOU-3 M7 (C27)       
1 43107U 18003A   24359.17878973 -.00000092  00000+0  00000+0 0  9990
2 43107  54.7936 321.0725 0002903  54.2157 305.8066  1.86232517 47294
BEIDOU-3 M8 (C28)       
1 43108U 18003B   24359.12079857 -.00000092  00000+0  00000+0 0  9990
2 43108  54.7867 321.0591 0004888 273.6790  86.2605  1.86230944 47306
BEIDOU-3 M4 (C22)       
1 43207U 18018A   24359.02500955 -.00000059  00000+0  00000+0 0  9996
2 43207  56.1786  81.0305 0004028 355.1888   4.8277  1.86231306 46682
BEIDOU-3 M3 (C21)       
1 43208U 18018B   24359.09159327 -.00000059  00000+0  00000+0 0  9997
2 43208  56.1782  81.0325 0006991 307.5661  52.3908  1.86231466 46688
BEIDOU-3 M9 (C29)       
1 43245U 18029A   24359.31110315 -.00000092  00000+0  00000+0 0  9996
2 43245  54.6710 318.7570 0001963 286.5953  73.3783  1.86232828 45843
BEIDOU-3 M10 (C30)      
1 43246U 18029B   24359.24051956 -.00000092  00000+0  00000+0 0  9994
2 43246  54.6683 318.7871 0004356 352.0658   7.9224  1.86232880 45826
BEIDOU-2 IGSO-7 (C16)   
1 43539U 18057A   24359.86386059 -.00000027  00000+0  00000+0 0  9991
2 43539  55.1564 167.7241 0078803 232.0087 116.0915  1.00253842 23720
BEIDOU-3 M5 (C23)       
1 43581U 18062A   24358.92958805  .00000098  00000+0  00000+0 0  9991
2 43581  54.1125 200.6752 0001917 351.3721   8.6869  1.86228938 43576
BEIDOU-3 M6 (C24)       
1 43582U 18062B   24359.33137408  .00000104  00000+0  00000+0 0  9994
2 43582  54.1120 200.6509 0007486  42.9352 317.1867  1.86229918 43588
BEIDOU-3 M12 (C26)      
1 43602U 18067A   24359.26553887  .00000105  00000+0  00000+0 0  9998
2 43602  54.2044 199.3520 0008694  36.2589 323.8616  1.86227875 43063
BEIDOU-3 M11 (C25)      
1 43603U 18067B   24359.39909872  .00000107  00000+0  00000+0 0  9994
2 43603  54.2016 199.3120 0005276  33.0285 327.0664  1.86227351 43091
BEIDOU-3 M13 (C32)      
1 43622U 18072A   24359.35961293 -.00000061  00000+0  00000+0 0  9992
2 43622  56.1505  80.5448 0006379 290.8712  69.0814  1.86231104 42600
BEIDOU-3 M14 (C33)      
1 43623U 18072B   24359.76203948 -.00000061  00000+0  00000+0 0  9994
2 43623  56.1531  80.5247 0003612 317.9620  42.0310  1.86231034 42607
BEIDOU-3 M16 (C35)      
1 43647U 18078A   24359.38647871 -.00000092  00000+0  00000+0 0  9995
2 43647  54.5674 318.8375 0007327   9.9213 350.0881  1.86232388 42108
BEIDOU-3 M15 (C34)      
1 43648U 18078B   24359.51563820 -.00000092  00000+0  00000+0 0  9992
2 43648  54.5629 318.8351 0004163   8.6582 351.3439  1.86232186 42124
BEIDOU-3 G1 (C59)       
1 43683U 18085A   24359.91376494 -.00000253  00000+0  00000+0 0  9991
2 43683   2.6661 102.9732 0001186  52.1980  47.7746  1.00270792 22650
BEIDOU-3 M17 (C36)      
1 43706U 18093A   24359.13179052  .00000101  00000+0  00000+0 0  9992
2 43706  54.1957 200.6209 0006267 300.9656  59.0356  1.86228595 41461
BEIDOU-3 M18 (C37)      
1 43707U 18093B   24358.99557438  .00000099  00000+0  00000+0 0  9990
2 43707  54.1970 200.6173 0006219 343.5955  16.4468  1.86230112 41479
BEIDOU-3 IGSO-1 (C38)   
1 44204U 19023A   24359.79978078 -.00000217  00000+0  00000+0 0  9996
2 44204  57.9217  43.2339 0024034 222.9810 232.4750  1.00297677  1809
BEIDOU-2 G8 (C01)       
1 44231U 19027A   24359.91463375 -.00000224  00000+0  00000+0 0  9991
2 44231   1.9525  74.8241 0004818 208.1054 284.7861  1.00268959 20676
BEIDOU-3 IGSO-2 (C39)   
1 44337U 19035A   24359.83114649 -.00000039  00000+0  00000+0 0  9999
2 44337  55.1949 163.5958 0035397 196.7220 150.7310  1.00280590 20258
BEIDOU-3 M24 (C46)      
1 44542U 19061A   24359.06572035  .00000100  00000+0  00000+0 0  9996
2 44542  54.4236 200.9470 0009111  18.5301 341.5663  1.86229429 35736
BEIDOU-3 M23 (C45)      
1 44543U 19061B   24358.34700031  .00000090  00000+0  00000+0 0  9994
2 44543  54.4217 200.9399 0005775  17.0876 133.7612  1.86229705 35720
BEIDOU-3 IGSO-3 (C40)   
1 44709U 19073A   24359.21256572 -.00000209  00000+0  00000+0 0  9997
2 44709  55.7276 286.7092 0041303 184.8479 175.1136  1.00299187 19049
BEIDOU-3 M22 (C44)      
1 44793U 19078A   24358.37280359 -.00000093  00000+0  00000+0 0  9992
2 44793  54.4154 318.7815 0006054  13.5815 346.4304  1.86232090 34577
BEIDOU-3 M21 (C43)      
1 44794U 19078B   24359.57616169 -.00000092  00000+0  00000+0 0  9997
2 44794  54.3879 318.7115 0004406   1.7736 358.2229  1.86227826 34606
BEIDOU-3 M19 (C41)      
1 44864U 19090A   24359.82523365 -.00000061  00000+0  00000+0 0  9998
2 44864  56.0853  80.6903 0018048 279.6969  79.3076  1.86231641 34180
BEIDOU-3 M20 (C42)      
1 44865U 19090B   24359.80473333 -.00000061  00000+0  00000+0 0  9996
2 44865  56.0870  80.7247 0015348 292.0099 142.9423  1.86231616 34179
BEIDOU-3 G2 (C60)       
1 45344U 20017A   24359.90186230 -.00000118  00000+0  00000+0 0  9991
2 45344   2.5835  36.1211 0004203 232.4514 230.0197  1.00272370 17854
BEIDOU-3 G3 (C61)       
1 45807U 20040A   24359.96762369 -.00000329  00000+0  00000+0 0  9994
2 45807   1.1598  58.1141 0003703 304.5997 190.1784  1.00271935 16667
BEIDOU-3 G4 (C62)       
1 56564U 23066A   24359.84599810 -.00000085  00000+0  00000+0 0  9992
2 56564   1.6492 289.2918 0003470 264.6684   4.4269  1.00270830  5987
BEIDOU-3 M28 (C50)      
1 58654U 23207A   24359.65910015 -.00000062  00000+0  00000+0 0  9999
2 58654  55.2710  80.5790 0002902 260.2190  99.7683  1.86232054  6797
BEIDOU-3 M26 (C48)      
1 58655U 23207B   24359.45850695 -.00000062  00000+0  00000+0 0  9995
2 58655  55.2727  80.5715 0004136 247.5764 112.3999  1.86231545  6773
